[{"OBJECT_NAME":"STARLINK-5137","OBJECT_ID":"2022-125M","EPOCH":"2026-03-09T17:22:19.760448","MEAN_MOTION":15.08835293,"ECCENTRICITY":0.00011632,"INCLINATION":53.2181,"RA_OF_ASC_NODE":218.5459,"ARG_OF_PERICENTER":86.4265,"MEAN_ANOMALY":273.6861,"EPHEMERIS_TYPE":0,"CLASSIFICATION_TYPE":"U","NORAD_CAT_ID":53975,"ELEMENT_SET_NO":999,"REV_AT_EPOCH":18940,"BSTAR":1.0217707e-5,"MEAN_MOTION_DOT":-1.25e-6,"MEAN_MOTION_DDOT":0},{"OBJECT_NAME":"THOR ABLESTAR DEB","OBJECT_ID":"1961-015HM","EPOCH":"2026-03-09T12:53:31.788672","MEAN_MOTION":15.12609006,"ECCENTRICITY":0.0020802,"INCLINATION":66.4912,"RA_OF_ASC_NODE":108.7707,"ARG_OF_PERICENTER":275.236,"MEAN_ANOMALY":209.827,"EPHEMERIS_TYPE":0,"CLASSIFICATION_TYPE":"U","NORAD_CAT_ID":660,"ELEMENT_SET_NO":999,"REV_AT_EPOCH":37032,"BSTAR":0.0020976473,"MEAN_MOTION_DOT":0.00036985,"MEAN_MOTION_DDOT":0}]
